STARLINK-36316          
1 67705U 26025N   26067.56149042  .00219992  00000+0  14345-2 0  9992
2 67705  97.2848 179.1019 0001300  97.6583 262.4830 15.75248203  5765
STARLINK-36707          
1 67706U 26025P   26067.54173158  .00130528  00000+0  86189-3 0  9999
2 67706  97.2848 179.1279 0001459  68.4887 291.6534 15.75210981  5769
STARLINK-36645          
1 67707U 26025Q   26067.24773364  .00216401  00000+0  14119-2 0  9990
2 67707  97.2853 178.7630 0001604 108.9345 251.2094 15.75244366  5715
STARLINK-36287          
1 67708U 26025R   26067.58335648  .00006510  00000+0  44590-4 0  9993
2 67708  97.2847 179.2009 0001616  87.8161 218.2176 15.75133853  5834
STARLINK-36698          
1 67709U 26025S   26067.58335648  .00028843  00000+0  19394-3 0  9990
2 67709  97.2843 179.2201 0001258  77.1575 272.8689 15.75147797  5688
STARLINK-36344          
1 67710U 26025T   26067.28338330  .00181580  00000+0  11906-2 0  9998
2 67710  97.2840 178.8673 0000667  73.4100 286.7239 15.75227263  5739
STARLINK-36687          
1 67711U 26025U   26067.57504547  .00578151  00000+0  27954-2 0  9990
2 67711  97.2837 179.2356 0001675 128.5006 231.6413 15.81037042  5785
STARLINK-36705          
1 67712U 26025V   26067.54560775  .00085496  00000+0  56728-3 0  9990
2 67712  97.2837 179.1175 0002210 117.5653 242.5837 15.75231852  5763
STARLINK-36708          
1 67713U 26025W   26067.58335648 -.02112030  00000+0 -33474-1 0  9994
2 67713  97.2844 179.1727 0001706  77.6408 159.8192 15.56554312  5748
STARLINK-36702          
1 67714U 26025X   26067.58335648  .00019819  00000+0  13366-3 0  9992
2 67714  97.2844 179.2396 0001176  71.7544 324.2630 15.75151014  5477
STARLINK-36718          
1 67715U 26025Y   26067.30681671  .00249796  00000+0  12626-2 0  9999
2 67715  97.2862 178.9867 0001741  68.6554 291.4900 15.80907449  5732
STARLINK-36715          
1 67716U 26025Z   26067.30888040  .00228051  00000+0  11571-2 0  9998
2 67716  97.2855 178.9848 0001354  91.5216 268.6207 15.80879557  5738
STARLINK-36385          
1 67717U 26025AA  26067.56833737  .00365185  00000+0  18168-2 0  9999
2 67717  97.2853 179.2445 0001610 127.3611 232.7804 15.80957364  5778
CZ-2F DEB               
1 67718U 26024E   26067.16847466  .00300173  00000+0  51522-2 0  9996
2 67718  50.3195  26.1635 0232642 273.9603  83.4794 15.25224538  4406
CZ-2F DEB               
1 67719U 26024F   26067.35202870  .00208510  00000+0  49282-2 0  9994
2 67719  49.7931  28.3939 0311587 266.0764  90.4511 15.03366898  4042
CZ-2F DEB               
1 67720U 26024G   26067.60383117  .00171623  00000+0  41834-2 0  9997
2 67720  49.8327  27.8237 0322398 263.1445  93.2725 15.00669352  4399
