[{"OBJECT_NAME":"STARLINK-36316","OBJECT_ID":"2026-025N","EPOCH":"2026-03-08T13:28:32.772288","MEAN_MOTION":15.75248203,"ECCENTRICITY":0.00013008,"INCLINATION":97.2848,"RA_OF_ASC_NODE":179.1019,"ARG_OF_PERICENTER":97.6583,"MEAN_ANOMALY":262.483,"EPHEMERIS_TYPE":0,"CLASSIFICATION_TYPE":"U","NORAD_CAT_ID":67705,"ELEMENT_SET_NO":999,"REV_AT_EPOCH":576,"BSTAR":0.0014345053,"MEAN_MOTION_DOT":0.00219992,"MEAN_MOTION_DDOT":0},{"OBJECT_NAME":"STARLINK-36707","OBJECT_ID":"2026-025P","EPOCH":"2026-03-08T13:00:05.608512","MEAN_MOTION":15.75210981,"ECCENTRICITY":0.00014597,"INCLINATION":97.2848,"RA_OF_ASC_NODE":179.1279,"ARG_OF_PERICENTER":68.4887,"MEAN_ANOMALY":291.6534,"EPHEMERIS_TYPE":0,"CLASSIFICATION_TYPE":"U","NORAD_CAT_ID":67706,"ELEMENT_SET_NO":999,"REV_AT_EPOCH":576,"BSTAR":0.0008618903,"MEAN_MOTION_DOT":0.00130528,"MEAN_MOTION_DDOT":0},{"OBJECT_NAME":"STARLINK-36645","OBJECT_ID":"2026-025Q","EPOCH":"2026-03-08T05:56:44.186496","MEAN_MOTION":15.75244366,"ECCENTRICITY":0.00016046,"INCLINATION":97.2853,"RA_OF_ASC_NODE":178.763,"ARG_OF_PERICENTER":108.9345,"MEAN_ANOMALY":251.2094,"EPHEMERIS_TYPE":0,"CLASSIFICATION_TYPE":"U","NORAD_CAT_ID":67707,"ELEMENT_SET_NO":999,"REV_AT_EPOCH":571,"BSTAR":0.0014119307,"MEAN_MOTION_DOT":0.00216401,"MEAN_MOTION_DDOT":0},{"OBJECT_NAME":"STARLINK-36287","OBJECT_ID":"2026-025R","EPOCH":"2026-03-08T14:00:01.999872","MEAN_MOTION":15.75133853,"ECCENTRICITY":0.00016166,"INCLINATION":97.2847,"RA_OF_ASC_NODE":179.2009,"ARG_OF_PERICENTER":87.8161,"MEAN_ANOMALY":218.2176,"EPHEMERIS_TYPE":0,"CLASSIFICATION_TYPE":"U","NORAD_CAT_ID":67708,"ELEMENT_SET_NO":999,"REV_AT_EPOCH":583,"BSTAR":4.4590099e-5,"MEAN_MOTION_DOT":6.51e-5,"MEAN_MOTION_DDOT":0},{"OBJECT_NAME":"STARLINK-36698","OBJECT_ID":"2026-025S","EPOCH":"2026-03-08T14:00:01.999872","MEAN_MOTION":15.75147797,"ECCENTRICITY":0.00012585,"INCLINATION":97.2843,"RA_OF_ASC_NODE":179.2201,"ARG_OF_PERICENTER":77.1575,"MEAN_ANOMALY":272.8689,"EPHEMERIS_TYPE":0,"CLASSIFICATION_TYPE":"U","NORAD_CAT_ID":67709,"ELEMENT_SET_NO":999,"REV_AT_EPOCH":568,"BSTAR":0.00019394233,"MEAN_MOTION_DOT":0.00028843,"MEAN_MOTION_DDOT":0},{"OBJECT_NAME":"STARLINK-36344","OBJECT_ID":"2026-025T","EPOCH":"2026-03-08T06:48:04.317120","MEAN_MOTION":15.75227263,"ECCENTRICITY":6.674e-5,"INCLINATION":97.284,"RA_OF_ASC_NODE":178.8673,"ARG_OF_PERICENTER":73.41,"MEAN_ANOMALY":286.7239,"EPHEMERIS_TYPE":0,"CLASSIFICATION_TYPE":"U","NORAD_CAT_ID":67710,"ELEMENT_SET_NO":999,"REV_AT_EPOCH":573,"BSTAR":0.0011906351,"MEAN_MOTION_DOT":0.0018158,"MEAN_MOTION_DDOT":0},{"OBJECT_NAME":"STARLINK-36687","OBJECT_ID":"2026-025U","EPOCH":"2026-03-08T13:48:03.928608","MEAN_MOTION":15.81037042,"ECCENTRICITY":0.00016756,"INCLINATION":97.2837,"RA_OF_ASC_NODE":179.2356,"ARG_OF_PERICENTER":128.5006,"MEAN_ANOMALY":231.6413,"EPHEMERIS_TYPE":0,"CLASSIFICATION_TYPE":"U","NORAD_CAT_ID":67711,"ELEMENT_SET_NO":999,"REV_AT_EPOCH":578,"BSTAR":0.0027953504,"MEAN_MOTION_DOT":0.00578151,"MEAN_MOTION_DDOT":0},{"OBJECT_NAME":"STARLINK-36705","OBJECT_ID":"2026-025V","EPOCH":"2026-03-08T13:05:40.509600","MEAN_MOTION":15.75231852,"ECCENTRICITY":0.00022105,"INCLINATION":97.2837,"RA_OF_ASC_NODE":179.1175,"ARG_OF_PERICENTER":117.5653,"MEAN_ANOMALY":242.5837,"EPHEMERIS_TYPE":0,"CLASSIFICATION_TYPE":"U","NORAD_CAT_ID":67712,"ELEMENT_SET_NO":999,"REV_AT_EPOCH":576,"BSTAR":0.00056728176,"MEAN_MOTION_DOT":0.00085496,"MEAN_MOTION_DDOT":0},{"OBJECT_NAME":"STARLINK-36708","OBJECT_ID":"2026-025W","EPOCH":"2026-03-08T14:00:01.999872","MEAN_MOTION":15.56554312,"ECCENTRICITY":0.0001706,"INCLINATION":97.2844,"RA_OF_ASC_NODE":179.1727,"ARG_OF_PERICENTER":77.6408,"MEAN_ANOMALY":159.8192,"EPHEMERIS_TYPE":0,"CLASSIFICATION_TYPE":"U","NORAD_CAT_ID":67713,"ELEMENT_SET_NO":999,"REV_AT_EPOCH":574,"BSTAR":-0.033473667,"MEAN_MOTION_DOT":-0.0211203,"MEAN_MOTION_DDOT":0},{"OBJECT_NAME":"STARLINK-36702","OBJECT_ID":"2026-025X","EPOCH":"2026-03-08T14:00:01.999872","MEAN_MOTION":15.75151014,"ECCENTRICITY":0.00011761,"INCLINATION":97.2844,"RA_OF_ASC_NODE":179.2396,"ARG_OF_PERICENTER":71.7544,"MEAN_ANOMALY":324.263,"EPHEMERIS_TYPE":0,"CLASSIFICATION_TYPE":"U","NORAD_CAT_ID":67714,"ELEMENT_SET_NO":999,"REV_AT_EPOCH":547,"BSTAR":0.00013365805,"MEAN_MOTION_DOT":0.00019819,"MEAN_MOTION_DDOT":0},{"OBJECT_NAME":"STARLINK-36718","OBJECT_ID":"2026-025Y","EPOCH":"2026-03-08T07:21:48.963744","MEAN_MOTION":15.80907449,"ECCENTRICITY":0.00017412,"INCLINATION":97.2862,"RA_OF_ASC_NODE":178.9867,"ARG_OF_PERICENTER":68.6554,"MEAN_ANOMALY":291.49,"EPHEMERIS_TYPE":0,"CLASSIFICATION_TYPE":"U","NORAD_CAT_ID":67715,"ELEMENT_SET_NO":999,"REV_AT_EPOCH":573,"BSTAR":0.0012625725,"MEAN_MOTION_DOT":0.00249796,"MEAN_MOTION_DDOT":0},{"OBJECT_NAME":"STARLINK-36715","OBJECT_ID":"2026-025Z","EPOCH":"2026-03-08T07:24:47.266560","MEAN_MOTION":15.80879557,"ECCENTRICITY":0.00013543,"INCLINATION":97.2855,"RA_OF_ASC_NODE":178.9848,"ARG_OF_PERICENTER":91.5216,"MEAN_ANOMALY":268.6207,"EPHEMERIS_TYPE":0,"CLASSIFICATION_TYPE":"U","NORAD_CAT_ID":67716,"ELEMENT_SET_NO":999,"REV_AT_EPOCH":573,"BSTAR":0.0011571071,"MEAN_MOTION_DOT":0.00228051,"MEAN_MOTION_DDOT":0},{"OBJECT_NAME":"STARLINK-36385","OBJECT_ID":"2026-025AA","EPOCH":"2026-03-08T13:38:24.348768","MEAN_MOTION":15.80957364,"ECCENTRICITY":0.00016109,"INCLINATION":97.2853,"RA_OF_ASC_NODE":179.2445,"ARG_OF_PERICENTER":127.3611,"MEAN_ANOMALY":232.7804,"EPHEMERIS_TYPE":0,"CLASSIFICATION_TYPE":"U","NORAD_CAT_ID":67717,"ELEMENT_SET_NO":999,"REV_AT_EPOCH":577,"BSTAR":0.0018168273,"MEAN_MOTION_DOT":0.00365185,"MEAN_MOTION_DDOT":0},{"OBJECT_NAME":"CZ-2F DEB","OBJECT_ID":"2026-024E","EPOCH":"2026-03-08T04:02:36.210624","MEAN_MOTION":15.25224538,"ECCENTRICITY":0.0232642,"INCLINATION":50.3195,"RA_OF_ASC_NODE":26.1635,"ARG_OF_PERICENTER":273.9603,"MEAN_ANOMALY":83.4794,"EPHEMERIS_TYPE":0,"CLASSIFICATION_TYPE":"U","NORAD_CAT_ID":67718,"ELEMENT_SET_NO":999,"REV_AT_EPOCH":440,"BSTAR":0.0051521849,"MEAN_MOTION_DOT":0.00300173,"MEAN_MOTION_DDOT":0},{"OBJECT_NAME":"CZ-2F DEB","OBJECT_ID":"2026-024F","EPOCH":"2026-03-08T08:26:55.279680","MEAN_MOTION":15.03366898,"ECCENTRICITY":0.03115871,"INCLINATION":49.7931,"RA_OF_ASC_NODE":28.3939,"ARG_OF_PERICENTER":266.0764,"MEAN_ANOMALY":90.4511,"EPHEMERIS_TYPE":0,"CLASSIFICATION_TYPE":"U","NORAD_CAT_ID":67719,"ELEMENT_SET_NO":999,"REV_AT_EPOCH":404,"BSTAR":0.0049281567,"MEAN_MOTION_DOT":0.0020851,"MEAN_MOTION_DDOT":0},{"OBJECT_NAME":"CZ-2F DEB","OBJECT_ID":"2026-024G","EPOCH":"2026-03-08T14:29:31.013088","MEAN_MOTION":15.00669352,"ECCENTRICITY":0.03223986,"INCLINATION":49.8327,"RA_OF_ASC_NODE":27.8237,"ARG_OF_PERICENTER":263.1445,"MEAN_ANOMALY":93.2725,"EPHEMERIS_TYPE":0,"CLASSIFICATION_TYPE":"U","NORAD_CAT_ID":67720,"ELEMENT_SET_NO":999,"REV_AT_EPOCH":439,"BSTAR":0.00418345,"MEAN_MOTION_DOT":0.00171623,"MEAN_MOTION_DDOT":0}]
